COMMENT,ORIGINATOR,NORAD_CAT_ID,OBJECT_NAME,OBJECT_TYPE,CLASSIFICATION_TYPE,INTLDES,EPOCH,EPOCH_MICROSECONDS,MEAN_MOTION,ECCENTRICITY,INCLINATION,RA_OF_ASC_NODE,ARG_OF_PERICENTER,MEAN_ANOMALY,EPHEMERIS_TYPE,ELEMENT_SET_NO,REV_AT_EPOCH,BSTAR,MEAN_MOTION_DOT,MEAN_MOTION_DDOT,FILE,TLE_LINE0,TLE_LINE1,TLE_LINE2,OBJECT_ID,OBJECT_NUMBER,SEMIMAJOR_AXIS,PERIOD,APOGEE,PERIGEE
"GENERATED VIA SPACETRACK.ORG API","JSPOC","23778","SL-12 R/B(2)","ROCKET BODY","U","96005D","2016-01-12 09:58:33","430080","0.97673877","0.0012413","14.1711","29.3807","102.9567","73.178","0","999","7117","0","-1.2e-06","0","1979855","0 SL-12 R/B(2)","1 23778U 96005D   16012.41566470 -.00000120 +00000-0 +00000-0 0  9994","2 23778 014.1711 029.3807 0012413 102.9567 073.1780 00.97673877071170","1996-005D","23778","42909.114","1474.293","36584.243","36477.716"
"GENERATED VIA SPACETRACK.ORG API","JSPOC","6909","NNSS 20 (TRANSIT 20)","PAYLOAD","U","73081A","2016-01-12 09:58:36","945696","13.70363511","0.0158997","89.8401","321.7688","126.948","234.6364","0","999","30769","0.00014044","1.48e-06","0","1979411","0 NNSS 20 (TRANSIT 20)","1 06909U 73081A   16012.41570539  .00000148  00000-0  14044-3 0  9996","2 06909  89.8401 321.7688 0158997 126.9480 234.6364 13.70363511307693","1973-081A","6909","7376.403","105.081","1115.550","880.985"
"GENERATED VIA SPACETRACK.ORG API","JSPOC","28155","ATLAS 2AS CENTAUR R/B","ROCKET BODY","U","04003B","2016-01-12 09:58:49","751040","3.13199389","0.663161","12.2456","300.3048","48.5234","351.7753","0","999","11682","0.0016333","6.601e-05","0","1979855","0 ATLAS 2AS CENTAUR R/B","1 28155U 04003B   16012.41585360 +.00006601 +00000-0 +16333-2 0  9991","2 28155 012.2456 300.3048 6631610 048.5234 351.7753 03.13199389116825","2004-003B","28155","19732.763","459.771","26440.627","268.629"
"GENERATED VIA SPACETRACK.ORG API","JSPOC","23171","SL-12 R/B(2)","ROCKET BODY","U","94038D","2016-01-12 09:58:57","10368","0.99432338","0.0021751","13.6756","26.0407","50.9386","137.3973","0","999","7813","0","-2.7e-06","0","1979407","0 SL-12 R/B(2)","1 23171U 94038D   16012.41593762 -.00000270  00000-0  00000+0 0  9994","2 23171  13.6756  26.0407 0021751  50.9386 137.3973  0.99432338 78133","1994-038D","23171","42401.713","1448.221","36115.806","35931.350"
"GENERATED VIA SPACETRACK.ORG API","JSPOC","15391","NATO 3D","PAYLOAD","U","84115A","2016-01-12 09:58:57","10368","0.94954918","0.0097441","13.9453","21.8229","40.1417","152.4191","0","999","11171","0","-1.29e-06","0","1979855","0 NATO 3D","1 15391U 84115A   16012.41593762 -.00000129 +00000-0 +00000-0 0  9998","2 15391 013.9453 021.8229 0097441 040.1417 152.4191 00.94954918111715","1984-115A","15391","43724.367","1516.509","37772.286","36920.177"
"GENERATED VIA SPACETRACK.ORG API","JSPOC","22314","TDRS 6","PAYLOAD","U","93003B","2016-01-12 09:58:57","10368","1.00269246","0.0008788","13.447","29.9732","277.5203","267.736","0","999","8425","0","-2.91e-06","0","1979855","0 TDRS 6","1 22314U 93003B   16012.41593762 -.00000291 +00000-0 +00000-0 0  9997","2 22314 013.4470 029.9732 0008788 277.5203 267.7360 01.00269246084252","1993-003B","22314","42165.443","1436.133","35824.363","35750.253"
"GENERATED VIA SPACETRACK.ORG API","JSPOC","8688","COSMOS 803","PAYLOAD","U","76014A","2016-01-12 09:59:06","754560","15.33725827","0.0026463","65.8455","356.3897","305.8892","53.9794","0","999","20478","6.3143e-05","1.869e-05","0","1979431","0 COSMOS 803","1 08688U 76014A   16012.41605040  .00001869  00000-0  63143-4 0  9993","2 08688  65.8455 356.3897 0026463 305.8892  53.9794 15.33725827204783","1976-014A","8688","6842.844","93.889","482.817","446.601"
"GENERATED VIA SPACETRACK.ORG API","JSPOC","20558","ASIASAT 1","PAYLOAD","U","90030A","2016-01-12 09:59:10","684032","0.99243255","0.0005546","13.4391","31.8902","224.2122","306.865","0","999","9389","0","-2.18e-06","0","1979402","0 ASIASAT 1","1 20558U 90030A   16012.41609588 -.00000218  00000-0  00000+0 0  9994","2 20558  13.4391  31.8902 0005546 224.2122 306.8650  0.99243255 93897","1990-030A","20558","42455.553","1450.980","36100.964","36053.872"
"GENERATED VIA SPACETRACK.ORG API","JSPOC","27437","SL-8 R/B","ROCKET BODY","U","02026B","2016-01-12 09:59:36","930624","13.76545287","0.0044688","82.9511","96.4341","43.6865","6.2841","0","999","68460","5.6011e-05","7.1e-07","0","1979415","0 SL-8 R/B","1 27437U 02026B   16012.41639966  .00000071  00000-0  56011-4 0  9992","2 27437  82.9511  96.4341 0044688  43.6865   6.2841 13.76545287684603","2002-026B","27437","7354.302","104.609","1009.032","943.302"
"GENERATED VIA SPACETRACK.ORG API","JSPOC","3286","OPS 9343 (IDSCS 22)","PAYLOAD","U","68050C","2016-01-12 09:59:48","437376","1.07757956","0.001822","1.0945","354.8139","131.5219","19.5558","0","999","9880","0","-1.11e-06","0","1979375","0 OPS 9343 (IDSCS 22)","1 03286U 68050C   16012.41653284 -.00000111  00000-0  00000+0 0  9994","2 03286   1.0945 354.8139 0018220 131.5219  19.5558  1.07757956 98803","1968-050C","3286","40188.544","1336.328","33883.633","33737.186"
"GENERATED VIA SPACETRACK.ORG API","JSPOC","26988","COSMOS 2381 (GLONASS)","PAYLOAD","U","01053B","2016-01-12 09:59:52","927584","2.13105538","0.0035167","62.9505","193.8253","208.7097","160.7292","0","999","10986","0","8.9e-07","0","1979855","0 COSMOS 2381 (GLONASS)","1 26988U 01053B   16012.41658481 +.00000089 +00000-0 +00000-0 0  9996","2 26988 062.9505 193.8253 0035167 208.7097 160.7292 02.13105538109867","2001-053B","26988","25507.742","675.721","19219.310","19039.904"
"GENERATED VIA SPACETRACK.ORG API","JSPOC","34264","RADUGA-1 8","PAYLOAD","U","09010A","2016-01-12 09:59:52","927584","0.99821664","0.0008949","4.7225","73.6703","287.9165","193.5963","0","999","2515","0","-2.42e-06","0","1979855","0 RADUGA-1 8","1 34264U 09010A   16012.41658481 -.00000242 +00000-0 +00000-0 0  9995","2 34264 004.7225 073.6703 0008949 287.9165 193.5963 00.99821664025159","2009-010A","34264","42291.391","1442.572","35951.102","35875.409"
"GENERATED VIA SPACETRACK.ORG API","JSPOC","36095","COSMOS 2455","PAYLOAD","U","09063A","2016-01-12 10:00:08","595360","13.96709138","0.0005397","67.148","152.1278","238.3019","223.2539","0","999","31339","0.0001","6.4e-07","0","1979395","0 COSMOS 2455","1 36095U 09063A   16012.41676615  .00000064  00000-0  10000-3 0  9991","2 36095  67.1480 152.1278 0005397 238.3019 223.2539 13.96709138313399","2009-063A","36095","7283.350","103.099","909.146","901.284"
"GENERATED VIA SPACETRACK.ORG API","JSPOC","2255","THOR AGENA D R/B","ROCKET BODY","U","66056B","2016-01-12 10:00:36","594144","7.94761427","0.0050821","86.9585","159.6785","16.6181","343.628","0","999","43803","0","2e-08","0","1979360","0 THOR AGENA D R/B","1 02255U 66056B   16012.41709021  .00000002  00000-0  00000+0 0  9992","2 02255  86.9585 159.6785 0050821  16.6181 343.6280  7.94761427438038","1966-056B","2255","10606.627","181.186","4282.396","4174.588"
"GENERATED VIA SPACETRACK.ORG API","JSPOC","19786","COSMOS 1995","PAYLOAD","U","89009B","2016-01-12 10:01:22","946016","12.62126609","0.000433","82.6244","283.9235","99.1564","311.3869","0","999","24004","0.00015874","3.9e-07","0","1979389","0 COSMOS 1995","1 19786U 89009B   16012.41762669  .00000039  00000-0  15874-3 0  9998","2 19786  82.6244 283.9235 0004330  99.1564 311.3869 12.62126609240041","1989-009B","19786","7792.316","114.093","1417.555","1410.806"
"GENERATED VIA SPACETRACK.ORG API","JSPOC","15697","COSMOS 1650 (GLONASS)","PAYLOAD","U","85037A","2016-01-12 10:01:42","369600","2.1310241","0.0030199","64.1176","204.0944","14.0558","15.3067","0","999","21513","0","9.3e-07","0","1979855","0 COSMOS 1650 (GLONASS)","1 15697U 85037A   16012.41785150 +.00000093 +00000-0 +00000-0 0  9994","2 15697 064.1176 204.0944 0030199 014.0558 015.3067 02.13102410215131","1985-037A","15697","25507.991","675.731","19206.888","19052.825"
"GENERATED VIA SPACETRACK.ORG API","JSPOC","38860","SJ-9A","PAYLOAD","U","12056A","2016-01-12 10:01:44","75136","14.79009781","0.0030601","97.8776","90.2248","95.2388","265.2312","0","999","17522","6.234e-05","4.12e-06","0","1979429","0 SJ-9A","1 38860U 12056A   16012.41787124  .00000412  00000-0  62340-4 0  9999","2 38860  97.8776  90.2248 0030601  95.2388 265.2312 14.79009781175225","2012-056A","38860","7010.588","97.362","653.906","611.000"
"GENERATED VIA SPACETRACK.ORG API","JSPOC","27057","COSMOS 2386","PAYLOAD","U","01058C","2016-01-12 10:02:09","427488","12.61533671","0.0001885","82.5446","132.3307","77.8935","282.2369","0","999","64659","-0.00012071","-1.1e-07","0","1979369","0 COSMOS 2386","1 27057U 01058C   16012.41816467 -.00000011  00000-0 -12071-3 0  9990","2 27057  82.5446 132.3307 0001885  77.8935 282.2369 12.61533671646599","2001-058C","27057","7794.757","114.146","1418.091","1415.153"
"GENERATED VIA SPACETRACK.ORG API","JSPOC","39250","GONETS M 06","PAYLOAD","U","13048B","2016-01-12 10:02:09","976992","12.42907809","0.001753","82.4816","198.0038","270.607","89.3","0","999","10589","0","1e-07","0","1979463","0 GONETS M 06","1 39250U 13048B   16012.41817103  .00000010  00000-0  00000+0 0  9990","2 39250  82.4816 198.0038 0017530 270.6070  89.3000 12.42907809105892","2013-048B","39250","7872.437","115.857","1508.103","1480.502"
"GENERATED VIA SPACETRACK.ORG API","JSPOC","20410","LEASAT 5","PAYLOAD","U","90002B","2016-01-12 10:02:11","564160","0.99600127","0.0003878","11.5272","16.0825","286.0985","105.5416","0","999","8048","0","-3.24e-06","0","1979389","0 LEASAT 5","1 20410U 90002B   16012.41818940 -.00000324  00000-0  00000+0 0  9992","2 20410  11.5272  16.0825 0003878 286.0985 105.5416  0.99600127 80489","1990-002B","20410","42354.079","1445.781","35992.369","35959.519"
